{
  "type": "FeatureCollection",
  "features": [
    {
      "type": "Feature",
      "properties": {
        "norad_id": 30480,
        "name": "FENGYUN 1C DEB",
        "group": "fengyun-1c-debris",
        "lat": 77.32650702960841,
        "lon": -35.42040599432493,
        "alt_km": 704.0301295734425,
        "timestamp": "2025-12-15T22:44:29.204579+00:00",
        "meta_object_name": "FENGYUN 1C DEB",
        "meta_object_id": "1999-025AGS",
        "meta_epoch": "2025-12-15T07:24:18.040032",
        "meta_mean_motion": 14.33602922,
        "meta_eccentricity": 0.01664881,
        "meta_inclination": 98.2238,
        "meta_ra_of_asc_node": 3.9964,
        "meta_arg_of_pericenter": 138.0166,
        "meta_mean_anomaly": 247.8502,
        "meta_ephemeris_type": 0,
        "meta_classification_type": "U",
        "meta_norad_cat_id": 30480,
        "meta_element_set_no": 999,
        "meta_rev_at_epoch": 98705,
        "meta_bstar": 0.00021158627,
        "meta_mean_motion_dot": 6.41e-06,
        "meta_mean_motion_ddot": 0,
        "tle_line1": "1 30480U 99025AGS 25349.30854213  .00000641  00000+0  21159-3 0  9990",
        "tle_line2": "2 30480  98.2238   3.9964 0166488 138.0166 247.8502 14.33602922987057"
      },
      "geometry": {
        "type": "Point",
        "coordinates": [
          -35.42040599432493,
          77.32650702960841
        ]
      }
    },
    {
      "type": "Feature",
      "properties": {
        "norad_id": 30481,
        "name": "FENGYUN 1C DEB",
        "group": "fengyun-1c-debris",
        "lat": -75.04105648449753,
        "lon": 153.87735172844717,
        "alt_km": 610.8842712945789,
        "timestamp": "2025-12-15T22:44:29.204589+00:00",
        "meta_object_name": "FENGYUN 1C DEB",
        "meta_object_id": "1999-025AGT",
        "meta_epoch": "2025-12-14T23:59:07.587168",
        "meta_mean_motion": 14.39048219,
        "meta_eccentricity": 0.02230284,
        "meta_inclination": 98.3372,
        "meta_ra_of_asc_node": 6.243,
        "meta_arg_of_pericenter": 253.1553,
        "meta_mean_anomaly": 134.8361,
        "meta_ephemeris_type": 0,
        "meta_classification_type": "U",
        "meta_norad_cat_id": 30481,
        "meta_element_set_no": 999,
        "meta_rev_at_epoch": 98516,
        "meta_bstar": 0.00045361146,
        "meta_mean_motion_dot": 1.821e-05,
        "meta_mean_motion_ddot": 0,
        "tle_line1": "1 30481U 99025AGT 25348.99939337  .00001821  00000+0  45361-3 0  9998",
        "tle_line2": "2 30481  98.3372   6.2430 0223028 253.1553 134.8361 14.39048219985162"
      },
      "geometry": {
        "type": "Point",
        "coordinates": [
          153.87735172844717,
          -75.04105648449753
        ]
      }
    },
    {
      "type": "Feature",
      "properties": {
        "norad_id": 30489,
        "name": "FENGYUN 1C DEB",
        "group": "fengyun-1c-debris",
        "lat": -21.83729642254151,
        "lon": -178.7393705380125,
        "alt_km": 784.5737979316227,
        "timestamp": "2025-12-15T22:44:29.204599+00:00",
        "meta_object_name": "FENGYUN 1C DEB",
        "meta_object_id": "1999-025AHB",
        "meta_epoch": "2025-12-15T08:16:20.199936",
        "meta_mean_motion": 14.15823859,
        "meta_eccentricity": 0.01389671,
        "meta_inclination": 98.4685,
        "meta_ra_of_asc_node": 4.1101,
        "meta_arg_of_pericenter": 257.4681,
        "meta_mean_anomaly": 114.6533,
        "meta_ephemeris_type": 0,
        "meta_classification_type": "U",
        "meta_norad_cat_id": 30489,
        "meta_element_set_no": 999,
        "meta_rev_at_epoch": 97424,
        "meta_bstar": 0.00028533143,
        "meta_mean_motion_dot": 5.74e-06,
        "meta_mean_motion_ddot": 0,
        "tle_line1": "1 30489U 99025AHB 25349.34467824  .00000574  00000+0  28533-3 0  9999",
        "tle_line2": "2 30489  98.4685   4.1101 0138967 257.4681 114.6533 14.15823859974245"
      },
      "geometry": {
        "type": "Point",
        "coordinates": [
          -178.7393705380125,
          -21.83729642254151
        ]
      }
    },
    {
      "type": "Feature",
      "properties": {
        "norad_id": 30490,
        "name": "FENGYUN 1C DEB",
        "group": "fengyun-1c-debris",
        "lat": -45.422457736297886,
        "lon": -66.56740016192809,
        "alt_km": 500.65817780871475,
        "timestamp": "2025-12-15T22:44:29.204610+00:00",
        "meta_object_name": "FENGYUN 1C DEB",
        "meta_object_id": "1999-025AHC",
        "meta_epoch": "2025-12-15T07:37:32.582208",
        "meta_mean_motion": 15.29067323,
        "meta_eccentricity": 0.00462053,
        "meta_inclination": 98.3291,
        "meta_ra_of_asc_node": 121.2786,
        "meta_arg_of_pericenter": 108.4707,
        "meta_mean_anomaly": 252.156,
        "meta_ephemeris_type": 0,
        "meta_classification_type": "U",
        "meta_norad_cat_id": 30490,
        "meta_element_set_no": 999,
        "meta_rev_at_epoch": 99535,
        "meta_bstar": 0.0024512656,
        "meta_mean_motion_dot": 0.00071933,
        "meta_mean_motion_ddot": 0,
        "tle_line1": "1 30490U 99025AHC 25349.31773822  .00071933  00000+0  24513-2 0  9996",
        "tle_line2": "2 30490  98.3291 121.2786 0046205 108.4707 252.1560 15.29067323995351"
      },
      "geometry": {
        "type": "Point",
        "coordinates": [
          -66.56740016192809,
          -45.422457736297886
        ]
      }
    },
    {
      "type": "Feature",
      "properties": {
        "norad_id": 30492,
        "name": "FENGYUN 1C DEB",
        "group": "fengyun-1c-debris",
        "lat": 12.404715276439074,
        "lon": 5.917846558173203,
        "alt_km": 670.0210357463193,
        "timestamp": "2025-12-15T22:44:29.204620+00:00",
        "meta_object_name": "FENGYUN 1C DEB",
        "meta_object_id": "1999-025AHE",
        "meta_epoch": "2025-12-15T07:47:58.749792",
        "meta_mean_motion": 14.51925297,
        "meta_eccentricity": 0.00945485,
        "meta_inclination": 102.3262,
        "meta_ra_of_asc_node": 7.7646,
        "meta_arg_of_pericenter": 56.174,
        "meta_mean_anomaly": 304.8397,
        "meta_ephemeris_type": 0,
        "meta_classification_type": "U",
        "meta_norad_cat_id": 30492,
        "meta_element_set_no": 999,
        "meta_rev_at_epoch": 96932,
        "meta_bstar": 0.0020407957,
        "meta_mean_motion_dot": 8.65e-05,
        "meta_mean_motion_ddot": 0,
        "tle_line1": "1 30492U 99025AHE 25349.32498553  .00008650  00000+0  20408-2 0  9999",
        "tle_line2": "2 30492 102.3262   7.7646 0094548  56.1740 304.8397 14.51925297969327"
      },
      "geometry": {
        "type": "Point",
        "coordinates": [
          5.917846558173203,
          12.404715276439074
        ]
      }
    },
    {
      "type": "Feature",
      "properties": {
        "norad_id": 30493,
        "name": "FENGYUN 1C DEB",
        "group": "fengyun-1c-debris",
        "lat": 14.833856840978287,
        "lon": 177.75290059398688,
        "alt_km": 1047.6606519016523,
        "timestamp": "2025-12-15T22:44:29.204630+00:00",
        "meta_object_name": "FENGYUN 1C DEB",
        "meta_object_id": "1999-025AHF",
        "meta_epoch": "2025-12-13T12:20:05.297280",
        "meta_mean_motion": 13.92976286,
        "meta_eccentricity": 0.01812019,
        "meta_inclination": 98.5708,
        "meta_ra_of_asc_node": 177.7868,
        "meta_arg_of_pericenter": 214.6596,
        "meta_mean_anomaly": 202.7185,
        "meta_ephemeris_type": 0,
        "meta_classification_type": "U",
        "meta_norad_cat_id": 30493,
        "meta_element_set_no": 999,
        "meta_rev_at_epoch": 95106,
        "meta_bstar": 0.0045223768,
        "meta_mean_motion_dot": 6.687e-05,
        "meta_mean_motion_ddot": 0,
        "tle_line1": "1 30493U 99025AHF 25347.51395020  .00006687  00000+0  45224-2 0  9995",
        "tle_line2": "2 30493  98.5708 177.7868 0181201 214.6596 202.7185 13.92976286951067"
      },
      "geometry": {
        "type": "Point",
        "coordinates": [
          177.75290059398688,
          14.833856840978287
        ]
      }
    },
    {
      "type": "Feature",
      "properties": {
        "norad_id": 30494,
        "name": "FENGYUN 1C DEB",
        "group": "fengyun-1c-debris",
        "lat": 45.29271283151374,
        "lon": -145.22402895431642,
        "alt_km": 935.5959424860648,
        "timestamp": "2025-12-15T22:44:29.204640+00:00",
        "meta_object_name": "FENGYUN 1C DEB",
        "meta_object_id": "1999-025AHG",
        "meta_epoch": "2025-12-13T09:08:54.511872",
        "meta_mean_motion": 13.79374392,
        "meta_eccentricity": 0.01858881,
        "meta_inclination": 99.283,
        "meta_ra_of_asc_node": 22.7493,
        "meta_arg_of_pericenter": 220.5118,
        "meta_mean_anomaly": 138.2072,
        "meta_ephemeris_type": 0,
        "meta_classification_type": "U",
        "meta_norad_cat_id": 30494,
        "meta_element_set_no": 999,
        "meta_rev_at_epoch": 94495,
        "meta_bstar": 0.0021155568,
        "meta_mean_motion_dot": 2.43e-05,
        "meta_mean_motion_ddot": 0,
        "tle_line1": "1 30494U 99025AHG 25347.38118648  .00002430  00000+0  21156-2 0  9990",
        "tle_line2": "2 30494  99.2830  22.7493 0185888 220.5118 138.2072 13.79374392944959"
      },
      "geometry": {
        "type": "Point",
        "coordinates": [
          -145.22402895431642,
          45.29271283151374
        ]
      }
    }
  ]
}